STARLINK-30771          
1 58169U 23166V   25336.25944633  .00001959  00000+0  78265-4 0  9997
2 58169  53.1613 312.0701 0001249  96.5832 263.5311 15.30197001118269
STARLINK-30764          
1 58170U 23166W   25336.25628321 -.00000771  00000+0 -13884-4 0  9991
2 58170  53.1622 312.0510 0001675  94.4543 265.6649 15.30193528118265
STARLINK-30752          
1 58171U 23166X   25336.25310819  .00001825  00000+0  73710-4 0  9995
2 58171  53.1608 312.0263 0001246  93.6505 266.4638 15.30200845118266
STARLINK-30753          
1 58175U 23167A   25336.00005747 -.00002358  00000+0 -15947-3 0  9995
2 58175  43.0057 316.4718 0001178 274.3013  85.7695 15.02544622116261
STARLINK-30824          
1 58176U 23167B   25335.99895123  .00000643  00000+0  62685-4 0  9993
2 58176  43.0050 316.4617 0001049 272.2383  87.8340 15.02534833116260
STARLINK-30791          
1 58177U 23167C   25336.21502556  .00001068  00000+0  94095-4 0  9997
2 58177  43.0038 315.4883 0001024 275.3372  84.7353 15.02538871116295
STARLINK-30810          
1 58178U 23167D   25335.92592909 -.00004079  00000+0 -28688-3 0  9997
2 58178  43.0038 317.6185 0001108 271.8282  88.2434 15.02561418116246
STARLINK-30819          
1 58179U 23167E   25336.25499816  .00014759  00000+0  11072-2 0  9990
2 58179  43.0038 315.7836 0000475 262.2314  97.8474 15.02470130116290
STARLINK-30806          
1 58180U 23167F   25336.22920823  .00012464  00000+0  93277-3 0  9995
2 58180  43.0038 315.5887 0001203 267.6847  92.3857 15.02671971116297
STARLINK-30821          
1 58181U 23167G   25336.21169710  .00000421  00000+0  46265-4 0  9991
2 58181  43.0029 315.4575 0001094 272.0228  88.0489 15.02539689116294
STARLINK-30778          
1 58182U 23167H   25336.20836825  .00000881  00000+0  80248-4 0  9998
2 58182  43.0036 315.4375 0000971 277.5435  82.5297 15.02540847116298
STARLINK-30809          
1 58183U 23167J   25336.24832880 -.00000002  00000+0  14894-4 0  9990
2 58183  43.0037 315.7355 0001455 279.3733  80.6945 15.02533425116293
STARLINK-30801          
1 58184U 23167K   25335.64670337 -.00001237  00000+0 -76492-4 0  9995
2 58184  43.0052 318.9625 0001105 264.5120  95.5596 15.02542558116209
STARLINK-30793          
1 58185U 23167L   25336.00560416  .00000264  00000+0  34620-4 0  9997
2 58185  43.0071 316.4957 0001410 258.9208 101.1476 15.02536216116266
STARLINK-30755          
1 58186U 23167M   25336.03667554 -.00002039  00000+0 -13578-3 0  9994
2 58186  43.0051 316.7290 0002084 286.5008  73.5606 15.02556187116267
STARLINK-30760          
1 58187U 23167N   25336.00222955  .00005998  00000+0  45797-3 0  9997
2 58187  43.0047 316.4677 0000404 231.3696 128.7110 15.02596006116261
