[{"OBJECT_NAME":"STARLINK-30771","OBJECT_ID":"2023-166V","EPOCH":"2025-12-02T06:13:36.162912","MEAN_MOTION":15.30197001,"ECCENTRICITY":0.00012499,"INCLINATION":53.1613,"RA_OF_ASC_NODE":312.0701,"ARG_OF_PERICENTER":96.5832,"MEAN_ANOMALY":263.5311,"EPHEMERIS_TYPE":0,"CLASSIFICATION_TYPE":"U","NORAD_CAT_ID":58169,"ELEMENT_SET_NO":999,"REV_AT_EPOCH":11826,"BSTAR":7.8265498e-5,"MEAN_MOTION_DOT":1.959e-5,"MEAN_MOTION_DDOT":0},{"OBJECT_NAME":"STARLINK-30764","OBJECT_ID":"2023-166W","EPOCH":"2025-12-02T06:09:02.869344","MEAN_MOTION":15.30193528,"ECCENTRICITY":0.00016755,"INCLINATION":53.1622,"RA_OF_ASC_NODE":312.051,"ARG_OF_PERICENTER":94.4543,"MEAN_ANOMALY":265.6649,"EPHEMERIS_TYPE":0,"CLASSIFICATION_TYPE":"U","NORAD_CAT_ID":58170,"ELEMENT_SET_NO":999,"REV_AT_EPOCH":11826,"BSTAR":-1.3884227e-5,"MEAN_MOTION_DOT":-7.71e-6,"MEAN_MOTION_DDOT":0},{"OBJECT_NAME":"STARLINK-30752","OBJECT_ID":"2023-166X","EPOCH":"2025-12-02T06:04:28.547616","MEAN_MOTION":15.30200845,"ECCENTRICITY":0.00012462,"INCLINATION":53.1608,"RA_OF_ASC_NODE":312.0263,"ARG_OF_PERICENTER":93.6505,"MEAN_ANOMALY":266.4638,"EPHEMERIS_TYPE":0,"CLASSIFICATION_TYPE":"U","NORAD_CAT_ID":58171,"ELEMENT_SET_NO":999,"REV_AT_EPOCH":11826,"BSTAR":7.3710287e-5,"MEAN_MOTION_DOT":1.825e-5,"MEAN_MOTION_DDOT":0},{"OBJECT_NAME":"STARLINK-30753","OBJECT_ID":"2023-167A","EPOCH":"2025-12-02T00:00:04.965408","MEAN_MOTION":15.02544622,"ECCENTRICITY":0.0001178,"INCLINATION":43.0057,"RA_OF_ASC_NODE":316.4718,"ARG_OF_PERICENTER":274.3013,"MEAN_ANOMALY":85.7695,"EPHEMERIS_TYPE":0,"CLASSIFICATION_TYPE":"U","NORAD_CAT_ID":58175,"ELEMENT_SET_NO":999,"REV_AT_EPOCH":11626,"BSTAR":-0.00015946578,"MEAN_MOTION_DOT":-2.358e-5,"MEAN_MOTION_DDOT":0},{"OBJECT_NAME":"STARLINK-30824","OBJECT_ID":"2023-167B","EPOCH":"2025-12-01T23:58:29.386272","MEAN_MOTION":15.02534833,"ECCENTRICITY":0.00010498,"INCLINATION":43.005,"RA_OF_ASC_NODE":316.4617,"ARG_OF_PERICENTER":272.2383,"MEAN_ANOMALY":87.834,"EPHEMERIS_TYPE":0,"CLASSIFICATION_TYPE":"U","NORAD_CAT_ID":58176,"ELEMENT_SET_NO":999,"REV_AT_EPOCH":11626,"BSTAR":6.2685497e-5,"MEAN_MOTION_DOT":6.43e-6,"MEAN_MOTION_DDOT":0},{"OBJECT_NAME":"STARLINK-30791","OBJECT_ID":"2023-167C","EPOCH":"2025-12-02T05:09:38.208384","MEAN_MOTION":15.02538871,"ECCENTRICITY":0.00010245,"INCLINATION":43.0038,"RA_OF_ASC_NODE":315.4883,"ARG_OF_PERICENTER":275.3372,"MEAN_ANOMALY":84.7353,"EPHEMERIS_TYPE":0,"CLASSIFICATION_TYPE":"U","NORAD_CAT_ID":58177,"ELEMENT_SET_NO":999,"REV_AT_EPOCH":11629,"BSTAR":9.409524e-5,"MEAN_MOTION_DOT":1.068e-5,"MEAN_MOTION_DDOT":0},{"OBJECT_NAME":"STARLINK-30810","OBJECT_ID":"2023-167D","EPOCH":"2025-12-01T22:13:20.273376","MEAN_MOTION":15.02561418,"ECCENTRICITY":0.00011084,"INCLINATION":43.0038,"RA_OF_ASC_NODE":317.6185,"ARG_OF_PERICENTER":271.8282,"MEAN_ANOMALY":88.2434,"EPHEMERIS_TYPE":0,"CLASSIFICATION_TYPE":"U","NORAD_CAT_ID":58178,"ELEMENT_SET_NO":999,"REV_AT_EPOCH":11624,"BSTAR":-0.00028687704,"MEAN_MOTION_DOT":-4.079e-5,"MEAN_MOTION_DDOT":0},{"OBJECT_NAME":"STARLINK-30819","OBJECT_ID":"2023-167E","EPOCH":"2025-12-02T06:07:11.841024","MEAN_MOTION":15.0247013,"ECCENTRICITY":4.757e-5,"INCLINATION":43.0038,"RA_OF_ASC_NODE":315.7836,"ARG_OF_PERICENTER":262.2314,"MEAN_ANOMALY":97.8474,"EPHEMERIS_TYPE":0,"CLASSIFICATION_TYPE":"U","NORAD_CAT_ID":58179,"ELEMENT_SET_NO":999,"REV_AT_EPOCH":11629,"BSTAR":0.0011072306,"MEAN_MOTION_DOT":0.00014759,"MEAN_MOTION_DDOT":0},{"OBJECT_NAME":"STARLINK-30806","OBJECT_ID":"2023-167F","EPOCH":"2025-12-02T05:30:03.591072","MEAN_MOTION":15.02671971,"ECCENTRICITY":0.00012039,"INCLINATION":43.0038,"RA_OF_ASC_NODE":315.5887,"ARG_OF_PERICENTER":267.6847,"MEAN_ANOMALY":92.3857,"EPHEMERIS_TYPE":0,"CLASSIFICATION_TYPE":"U","NORAD_CAT_ID":58180,"ELEMENT_SET_NO":999,"REV_AT_EPOCH":11629,"BSTAR":0.0009327748,"MEAN_MOTION_DOT":0.00012464,"MEAN_MOTION_DDOT":0},{"OBJECT_NAME":"STARLINK-30821","OBJECT_ID":"2023-167G","EPOCH":"2025-12-02T05:04:50.629440","MEAN_MOTION":15.02539689,"ECCENTRICITY":0.00010949,"INCLINATION":43.0029,"RA_OF_ASC_NODE":315.4575,"ARG_OF_PERICENTER":272.0228,"MEAN_ANOMALY":88.0489,"EPHEMERIS_TYPE":0,"CLASSIFICATION_TYPE":"U","NORAD_CAT_ID":58181,"ELEMENT_SET_NO":999,"REV_AT_EPOCH":11629,"BSTAR":4.6264811e-5,"MEAN_MOTION_DOT":4.21e-6,"MEAN_MOTION_DDOT":0},{"OBJECT_NAME":"STARLINK-30778","OBJECT_ID":"2023-167H","EPOCH":"2025-12-02T05:00:03.016800","MEAN_MOTION":15.02540847,"ECCENTRICITY":9.719e-5,"INCLINATION":43.0036,"RA_OF_ASC_NODE":315.4375,"ARG_OF_PERICENTER":277.5435,"MEAN_ANOMALY":82.5297,"EPHEMERIS_TYPE":0,"CLASSIFICATION_TYPE":"U","NORAD_CAT_ID":58182,"ELEMENT_SET_NO":999,"REV_AT_EPOCH":11629,"BSTAR":8.0247714e-5,"MEAN_MOTION_DOT":8.81e-6,"MEAN_MOTION_DDOT":0},{"OBJECT_NAME":"STARLINK-30809","OBJECT_ID":"2023-167J","EPOCH":"2025-12-02T05:57:35.608320","MEAN_MOTION":15.02533425,"ECCENTRICITY":0.0001455,"INCLINATION":43.0037,"RA_OF_ASC_NODE":315.7355,"ARG_OF_PERICENTER":279.3733,"MEAN_ANOMALY":80.6945,"EPHEMERIS_TYPE":0,"CLASSIFICATION_TYPE":"U","NORAD_CAT_ID":58183,"ELEMENT_SET_NO":999,"REV_AT_EPOCH":11629,"BSTAR":1.4894176e-5,"MEAN_MOTION_DOT":-2.0e-8,"MEAN_MOTION_DDOT":0},{"OBJECT_NAME":"STARLINK-30801","OBJECT_ID":"2023-167K","EPOCH":"2025-12-01T15:31:15.171168","MEAN_MOTION":15.02542558,"ECCENTRICITY":0.00011054,"INCLINATION":43.0052,"RA_OF_ASC_NODE":318.9625,"ARG_OF_PERICENTER":264.512,"MEAN_ANOMALY":95.5596,"EPHEMERIS_TYPE":0,"CLASSIFICATION_TYPE":"U","NORAD_CAT_ID":58184,"ELEMENT_SET_NO":999,"REV_AT_EPOCH":11620,"BSTAR":-7.6492437e-5,"MEAN_MOTION_DOT":-1.237e-5,"MEAN_MOTION_DDOT":0},{"OBJECT_NAME":"STARLINK-30793","OBJECT_ID":"2023-167L","EPOCH":"2025-12-02T00:08:04.199424","MEAN_MOTION":15.02536216,"ECCENTRICITY":0.00014109,"INCLINATION":43.0071,"RA_OF_ASC_NODE":316.4957,"ARG_OF_PERICENTER":258.9208,"MEAN_ANOMALY":101.1476,"EPHEMERIS_TYPE":0,"CLASSIFICATION_TYPE":"U","NORAD_CAT_ID":58185,"ELEMENT_SET_NO":999,"REV_AT_EPOCH":11626,"BSTAR":3.4620452e-5,"MEAN_MOTION_DOT":2.64e-6,"MEAN_MOTION_DDOT":0},{"OBJECT_NAME":"STARLINK-30755","OBJECT_ID":"2023-167M","EPOCH":"2025-12-02T00:52:48.766656","MEAN_MOTION":15.02556187,"ECCENTRICITY":0.00020846,"INCLINATION":43.0051,"RA_OF_ASC_NODE":316.729,"ARG_OF_PERICENTER":286.5008,"MEAN_ANOMALY":73.5606,"EPHEMERIS_TYPE":0,"CLASSIFICATION_TYPE":"U","NORAD_CAT_ID":58186,"ELEMENT_SET_NO":999,"REV_AT_EPOCH":11626,"BSTAR":-0.0001357757,"MEAN_MOTION_DOT":-2.039e-5,"MEAN_MOTION_DDOT":0},{"OBJECT_NAME":"STARLINK-30760","OBJECT_ID":"2023-167N","EPOCH":"2025-12-02T00:03:12.633120","MEAN_MOTION":15.02596006,"ECCENTRICITY":4.044e-5,"INCLINATION":43.0047,"RA_OF_ASC_NODE":316.4677,"ARG_OF_PERICENTER":231.3696,"MEAN_ANOMALY":128.711,"EPHEMERIS_TYPE":0,"CLASSIFICATION_TYPE":"U","NORAD_CAT_ID":58187,"ELEMENT_SET_NO":999,"REV_AT_EPOCH":11626,"BSTAR":0.00045796879,"MEAN_MOTION_DOT":5.998e-5,"MEAN_MOTION_DDOT":0}]
